LEMUR-2-PETERG          
1 42841U 17042S   26068.48235713  .00023240  00000+0  81076-3 0  9993
2 42841  97.3980 253.6596 0003700 341.6938  18.4169 15.29611459473171
STARLINK-34505          
1 64490U 25133U   26068.53499537  .00039134  00000+0  13246-2 0  9991
2 64490  53.1584 117.5822 0001617  99.3261 260.7923 15.30246488 41142
